{
    "links": {
        "self": "http://www.neowsapp.com/rest/v1/neo/3546795?api_key=iIulBulltgU6a56xZRHN4H3l9WmuAYTsLGpBGhQ2"
    },
    "id": "3546795",
    "neo_reference_id": "3546795",
    "name": "(2010 SW3)",
    "designation": "2010 SW3",
    "nasa_jpl_url": "http://ssd.jpl.nasa.gov/sbdb.cgi?sstr=3546795",
    "absolute_magnitude_h": 26.6,
    "estimated_diameter": {
        "kilometers": {
            "estimated_diameter_min": 0.0127219879,
            "estimated_diameter_max": 0.0284472297
        },
        "meters": {
            "estimated_diameter_min": 12.7219878539,
            "estimated_diameter_max": 28.4472296503
        },
        "miles": {
            "estimated_diameter_min": 0.0079050743,
            "estimated_diameter_max": 0.0176762835
        },
        "feet": {
            "estimated_diameter_min": 41.7388066307,
            "estimated_diameter_max": 93.330808926
        }
    },
    "is_potentially_hazardous_asteroid": false,
    "close_approach_data": [
        {
            "close_approach_date": "1931-06-11",
            "close_approach_date_full": "1931-Jun-11 16:01",
            "epoch_date_close_approach": -1216799940000,
            "relative_velocity": {
                "kilometers_per_second": "12.7119539843",
                "kilometers_per_hour": "45763.0343434238",
                "miles_per_hour": "28435.3698674458"
            },
            "miss_distance": {
                "astronomical": "0.1745861446",
                "lunar": "67.9140102494",
                "kilometers": "26117715.363672002",
                "miles": "16228795.7877255476"
            },
            "orbiting_body": "Earth"
        },
        {
            "close_approach_date": "2010-09-09",
            "close_approach_date_full": "2010-Sep-09 15:52",
            "epoch_date_close_approach": 1284047520000,
            "relative_velocity": {
                "kilometers_per_second": "8.1222829381",
                "kilometers_per_hour": "29240.218577042",
                "miles_per_hour": "18168.7347041626"
            },
            "miss_distance": {
                "astronomical": "0.0068055956",
                "lunar": "2.6473766884",
                "kilometers": "1018102.605841372",
                "miles": "632619.6243080536"
            },
            "orbiting_body": "Moon"
        },
        {
            "close_approach_date": "2010-09-09",
            "close_approach_date_full": "2010-Sep-09 23:33",
            "epoch_date_close_approach": 1284075180000,
            "relative_velocity": {
                "kilometers_per_second": "7.6403456935",
                "kilometers_per_hour": "27505.2444967298",
                "miles_per_hour": "17090.6892818708"
            },
            "miss_distance": {
                "astronomical": "0.0059140361",
                "lunar": "2.3005600429",
                "kilometers": "884727.203663107",
                "miles": "549743.9923885966"
            },
            "orbiting_body": "Earth"
        },
        {
            "close_approach_date": "2012-10-09",
            "close_approach_date_full": "2012-Oct-09 11:25",
            "epoch_date_close_approach": 1349781900000,
            "relative_velocity": {
                "kilometers_per_second": "17.9053283714",
                "kilometers_per_hour": "64459.1821368798",
                "miles_per_hour": "40052.4290338851"
            },
            "miss_distance": {
                "astronomical": "0.3468737703",
                "lunar": "134.9338966467",
                "kilometers": "51891577.195749261",
                "miles": "32243930.8984953618"
            },
            "orbiting_body": "Earth"
        }
    ],
    "orbital_data": {
        "orbit_id": "7",
        "orbit_determination_date": "2019-07-16 06:14:06",
        "first_observation_date": "2010-09-16",
        "last_observation_date": "2010-09-19",
        "data_arc_in_days": 3,
        "observations_used": 19,
        "orbit_uncertainty": "8",
        "minimum_orbit_intersection": ".000587764",
        "jupiter_tisserand_invariant": "4.237",
        "epoch_osculation": "2455457.5",
        "eccentricity": ".4007626310238281",
        "semi_major_axis": "1.617947520915678",
        "inclination": "1.491769029775288",
        "ascending_node_longitude": "344.2471563829704",
        "orbital_period": "751.7009052081588",
        "perihelion_distance": ".9695346155750308",
        "perihelion_argument": "331.5771793888622",
        "aphelion_distance": "2.266360426256326",
        "perihelion_time": "2455423.436856482752",
        "mean_anomaly": "16.31331235767705",
        "mean_motion": ".4789138838409538",
        "equinox": "J2000",
        "orbit_class": {
            "orbit_class_type": "APO",
            "orbit_class_description": "Near-Earth asteroid orbits which cross the Earth’s orbit similar to that of 1862 Apollo",
            "orbit_class_range": "a (semi-major axis) > 1.0 AU; q (perihelion) < 1.017 AU"
        }
    },
    "is_sentry_object": false
}